0 DELTA 1 DEB
1 07042U 73086AJ  13282.94122265  .00000676  00000-0  94691-3 0  8220
2 07042 101.7281 052.3626 0331889 187.4492 290.8680 13.41792355939965
0 DELTA 1 DEB
1 07042U 73086AJ  13287.32803139  .00000768  00000-0  10644-2 0  8242
2 07042 101.7290 057.4536 0331764 177.5390 241.1440 13.41799667940553
0 DELTA 1 DEB
1 07042U 73086AJ  13289.33603554  .00000784  00000-0  10852-2 0  8254
2 07042 101.7293 059.7840 0331695 172.9993 220.7624 13.41805065940827
0 DELTA 1 DEB
1 07042U 73086AJ  13291.35473032  .00000783  00000-0  10845-2 0  8267
2 07042 101.7295 062.1270 0331569 168.4487 252.0415 13.41808018941099
0 DELTA 1 DEB
1 07042U 73086AJ  13293.36912892  .00000895  00000-0  12286-2 0  8278
2 07042 101.7294 064.4649 0331457 163.9010 262.6015 13.41812517941363
0 DELTA 1 DEB
1 07042U 73086AJ  13295.84910836  .00000877  00000-0  12055-2 0  8284
2 07042 101.7292 067.3431 0331322 158.2957 002.1991 13.41817812941699
